[{"OBJECT_NAME":"STARLINK-4151","OBJECT_ID":"2022-076BA","EPOCH":"2026-03-09T10:25:48.368640","MEAN_MOTION":15.08841144,"ECCENTRICITY":0.00013481,"INCLINATION":53.2166,"RA_OF_ASC_NODE":75.3144,"ARG_OF_PERICENTER":87.2856,"MEAN_ANOMALY":272.8291,"EPHEMERIS_TYPE":0,"CLASSIFICATION_TYPE":"U","NORAD_CAT_ID":53034,"ELEMENT_SET_NO":999,"REV_AT_EPOCH":20308,"BSTAR":6.2340276e-5,"MEAN_MOTION_DOT":7.04e-6,"MEAN_MOTION_DDOT":0},{"OBJECT_NAME":"CZ-4 DEB","OBJECT_ID":"2006-046L","EPOCH":"2026-03-09T05:26:57.251328","MEAN_MOTION":15.20206122,"ECCENTRICITY":0.00567956,"INCLINATION":97.8211,"RA_OF_ASC_NODE":163.0679,"ARG_OF_PERICENTER":229.3561,"MEAN_ANOMALY":130.2727,"EPHEMERIS_TYPE":0,"CLASSIFICATION_TYPE":"U","NORAD_CAT_ID":35378,"ELEMENT_SET_NO":999,"REV_AT_EPOCH":2541,"BSTAR":0.0021311714,"MEAN_MOTION_DOT":0.00048409,"MEAN_MOTION_DDOT":0}]
